start=new Date('2022-05-05T00:00:00.000Z').valueOf();
sats=[{"INCLINATION":"53.0553","CENTER_NAME":"EARTH","TLE_LINE1":"1 46685U 20073R   22124.59632210  .00000349  00000-0  42362-4 0  9997","EPOCH":"2022-05-04T14:18:42.229440","OBJECT_ID":"2020-073R","NORAD_CAT_ID":"46685","EPHEMERIS_TYPE":"0","TIME_SYSTEM":"UTC","REV_AT_EPOCH":"8513","MEAN_ELEMENT_THEORY":"SGP4","OBJECT_TYPE":"PAYLOAD","RA_OF_ASC_NODE":"84.3386","ELEMENT_SET_NO":"999","TLE_LINE2":"2 46685  53.0553  84.3386 0001952  48.1449 311.9706 15.06392491 85135","APOAPSIS":"548.588","BSTAR":"0.00004236200000","OBJECT_NAME":"STARLINK-1781","SEMIMAJOR_AXIS":"6925.372","ECCENTRICITY":"0.00019520","CLASSIFICATION_TYPE":"U","FILE":"3428698","DECAY_DATE":null,"REF_FRAME":"TEME","PERIOD":"95.593","ARG_OF_PERICENTER":"48.1449","GP_ID":"202680862","COUNTRY_CODE":"US","PERIAPSIS":"545.885","RCS_SIZE":"LARGE","SITE":"AFETR","LAUNCH_DATE":"2020-10-18","MEAN_MOTION_DOT":"0.00000349","MEAN_MOTION_DDOT":"0.0000000000000","MEAN_ANOMALY":"311.9706","MEAN_MOTION":"15.06392491"},{"ELEMENT_SET_NO":"999","RA_OF_ASC_NODE":"84.4132","ECCENTRICITY":"0.00019790","CLASSIFICATION_TYPE":"U","TLE_LINE2":"2 46686  53.0557  84.4132 0001979  52.9604 307.1565 15.06405358 85132","APOAPSIS":"548.568","BSTAR":"0.00015625000000","OBJECT_NAME":"STARLINK-1783","SEMIMAJOR_AXIS":"6925.332","OBJECT_ID":"2020-073S","NORAD_CAT_ID":"46686","INCLINATION":"53.0557","CENTER_NAME":"EARTH","EPOCH":"2022-05-04T13:52:09.143904","TLE_LINE1":"1 46686U 20073S   22124.57788361  .00002047  00000-0  15625-3 0  9993","TIME_SYSTEM":"UTC","REV_AT_EPOCH":"8513","MEAN_ELEMENT_THEORY":"SGP4","OBJECT_TYPE":"PAYLOAD","EPHEMERIS_TYPE":"0","RCS_SIZE":"LARGE","SITE":"AFETR","PERIAPSIS":"545.827","LAUNCH_DATE":"2020-10-18","MEAN_MOTION_DDOT":"0.0000000000000","MEAN_MOTION_DOT":"0.00002047","MEAN_ANOMALY":"307.1565","MEAN_MOTION":"15.06405358","DECAY_DATE":null,"REF_FRAME":"TEME","PERIOD":"95.592","ARG_OF_PERICENTER":"52.9604","GP_ID":"202681112","FILE":"3428698","COUNTRY_CODE":"US"},{"RCS_SIZE":"LARGE","SITE":"AFETR","PERIAPSIS":"545.785","LAUNCH_DATE":"2020-10-18","MEAN_MOTION_DOT":"0.00001887","MEAN_MOTION_DDOT":"0.0000000000000","MEAN_ANOMALY":"320.4610","MEAN_MOTION":"15.06412280","DECAY_DATE":null,"REF_FRAME":"TEME","PERIOD":"95.591","GP_ID":"202715266","ARG_OF_PERICENTER":"39.6525","FILE":"3429148","COUNTRY_CODE":"US","ELEMENT_SET_NO":"999","RA_OF_ASC_NODE":"48.2793","ECCENTRICITY":"0.00020080","CLASSIFICATION_TYPE":"U","TLE_LINE2":"2 46687  53.0567  48.2793 0002008  39.6525 320.4610 15.06412280 85662","APOAPSIS":"548.567","OBJECT_NAME":"STARLINK-1784","BSTAR":"0.00014550000000","SEMIMAJOR_AXIS":"6925.311","OBJECT_ID":"2020-073T","NORAD_CAT_ID":"46687","INCLINATION":"53.0567","CENTER_NAME":"EARTH","EPOCH":"2022-05-04T19:55:05.499264","TLE_LINE1":"1 46687U 20073T   22124.82992476  .00001887  00000-0  14550-3 0  9993","TIME_SYSTEM":"UTC","MEAN_ELEMENT_THEORY":"SGP4","REV_AT_EPOCH":"8566","OBJECT_TYPE":"PAYLOAD","EPHEMERIS_TYPE":"0"},{"LAUNCH_DATE":"2020-10-18","MEAN_MOTION_DDOT":"0.0000000000000","MEAN_MOTION_DOT":"0.00003335","MEAN_ANOMALY":"307.4355","MEAN_MOTION":"15.06398664","RCS_SIZE":"LARGE","SITE":"AFETR","PERIAPSIS":"545.882","COUNTRY_CODE":"US","DECAY_DATE":null,"PERIOD":"95.592","REF_FRAME":"TEME","ARG_OF_PERICENTER":"52.6809","GP_ID":"202690322","FILE":"3428987","ECCENTRICITY":"0.00019290","CLASSIFICATION_TYPE":"U","TLE_LINE2":"2 46689  53.0535  84.3663 0001929  52.6809 307.4355 15.06398664 85612","APOAPSIS":"548.554","OBJECT_NAME":"STARLINK-1788","BSTAR":"0.00024269000000","SEMIMAJOR_AXIS":"6925.353","ELEMENT_SET_NO":"999","RA_OF_ASC_NODE":"84.3663","TIME_SYSTEM":"UTC","REV_AT_EPOCH":"8561","MEAN_ELEMENT_THEORY":"SGP4","OBJECT_TYPE":"PAYLOAD","EPHEMERIS_TYPE":"0","OBJECT_ID":"2020-073V","NORAD_CAT_ID":"46689","INCLINATION":"53.0535","CENTER_NAME":"EARTH","EPOCH":"2022-05-04T14:08:05.763840","TLE_LINE1":"1 46689U 20073V   22124.58895560  .00003335  00000-0  24269-3 0  9992"},{"TLE_LINE1":"1 46690U 20073W   22124.52306658  .00001384  00000-0  11181-3 0  9994","EPOCH":"2022-05-04T12:33:12.952512","CENTER_NAME":"EARTH","INCLINATION":"53.0562","NORAD_CAT_ID":"46690","OBJECT_ID":"2020-073W","EPHEMERIS_TYPE":"0","OBJECT_TYPE":"PAYLOAD","MEAN_ELEMENT_THEORY":"SGP4","REV_AT_EPOCH":"8547","TIME_SYSTEM":"UTC","RA_OF_ASC_NODE":"59.6517","ELEMENT_SET_NO":"999","SEMIMAJOR_AXIS":"6925.356","OBJECT_NAME":"STARLINK-1789","BSTAR":"0.00011181000000","APOAPSIS":"548.240","TLE_LINE2":"2 46690  53.0562  59.6517 0001471  74.0341 286.0810 15.06397639 85471","CLASSIFICATION_TYPE":"U","ECCENTRICITY":"0.00014710","FILE":"3428698","GP_ID":"202681362","ARG_OF_PERICENTER":"74.0341","REF_FRAME":"TEME","PERIOD":"95.592","DECAY_DATE":null,"COUNTRY_CODE":"US","PERIAPSIS":"546.202","SITE":"AFETR","RCS_SIZE":"LARGE","MEAN_MOTION":"15.06397639","MEAN_ANOMALY":"286.0810","MEAN_MOTION_DDOT":"0.0000000000000","MEAN_MOTION_DOT":"0.00001384","LAUNCH_DATE":"2020-10-18"},{"OBJECT_NAME":"STARLINK-1790","BSTAR":"0.00002618800000","SEMIMAJOR_AXIS":"6925.364","TLE_LINE2":"2 46691  53.0548  70.8593 0002097  51.6763 308.4414 15.06395076 85291","APOAPSIS":"548.681","CLASSIFICATION_TYPE":"U","ECCENTRICITY":"0.00020970","RA_OF_ASC_NODE":"70.8593","ELEMENT_SET_NO":"999","EPHEMERIS_TYPE":"0","OBJECT_TYPE":"PAYLOAD","TIME_SYSTEM":"UTC","REV_AT_EPOCH":"8529","MEAN_ELEMENT_THEORY":"SGP4","CENTER_NAME":"EARTH","TLE_LINE1":"1 46691U 20073X   22124.25676328  .00000108  00000-0  26188-4 0  9996","EPOCH":"2022-05-04T06:09:44.347392","INCLINATION":"53.0548","NORAD_CAT_ID":"46691","OBJECT_ID":"2020-073X","MEAN_MOTION":"15.06395076","LAUNCH_DATE":"2020-10-18","MEAN_MOTION_DOT":"0.00000108","MEAN_MOTION_DDOT":"0.0000000000000","MEAN_ANOMALY":"308.4414","PERIAPSIS":"545.776","RCS_SIZE":"LARGE","SITE":"AFETR","COUNTRY_CODE":"US","FILE":"3428698","PERIOD":"95.592","REF_FRAME":"TEME","ARG_OF_PERICENTER":"51.6763","GP_ID":"202681612","DECAY_DATE":null},{"SITE":"AFETR","RCS_SIZE":"LARGE","PERIAPSIS":"545.888","MEAN_ANOMALY":"299.1443","MEAN_MOTION_DDOT":"0.0000000000000","MEAN_MOTION_DOT":"0.00002276","LAUNCH_DATE":"2020-10-18","MEAN_MOTION":"15.06407591","DECAY_DATE":null,"GP_ID":"202714766","ARG_OF_PERICENTER":"60.9735","PERIOD":"95.592","REF_FRAME":"TEME","FILE":"3429148","COUNTRY_CODE":"US","ELEMENT_SET_NO":"999","RA_OF_ASC_NODE":"83.2251","ECCENTRICITY":"0.00018800","CLASSIFICATION_TYPE":"U","APOAPSIS":"548.492","TLE_LINE2":"2 46692  53.0546  83.2251 0001880  60.9735 299.1443 15.06407591 85171","SEMIMAJOR_AXIS":"6925.325","BSTAR":"0.00017160000000","OBJECT_NAME":"STARLINK-1791","OBJECT_ID":"2020-073Y","NORAD_CAT_ID":"46692","INCLINATION":"53.0546","EPOCH":"2022-05-04T20:09:00.973440","TLE_LINE1":"1 46692U 20073Y   22124.83959460  .00002276  00000-0  17160-3 0  9999","CENTER_NAME":"EARTH","MEAN_ELEMENT_THEORY":"SGP4","REV_AT_EPOCH":"8517","TIME_SYSTEM":"UTC","OBJECT_TYPE":"PAYLOAD","EPHEMERIS_TYPE":"0"},{"RA_OF_ASC_NODE":"70.8387","ELEMENT_SET_NO":"999","SEMIMAJOR_AXIS":"6925.361","OBJECT_NAME":"STARLINK-1792","BSTAR":"0.00014729000000","APOAPSIS":"548.711","TLE_LINE2":"2 46693  53.0562  70.8387 0002144  47.5436 312.5734 15.06395921 85294","CLASSIFICATION_TYPE":"U","ECCENTRICITY":"0.00021440","TLE_LINE1":"1 46693U 20073Z   22124.26044417  .00001913  00000-0  14729-3 0  9999","EPOCH":"2022-05-04T06:15:02.376288","CENTER_NAME":"EARTH","INCLINATION":"53.0562","NORAD_CAT_ID":"46693","OBJECT_ID":"2020-073Z","EPHEMERIS_TYPE":"0","OBJECT_TYPE":"PAYLOAD","REV_AT_EPOCH":"8529","MEAN_ELEMENT_THEORY":"SGP4","TIME_SYSTEM":"UTC","PERIAPSIS":"545.741","SITE":"AFETR","RCS_SIZE":"LARGE","MEAN_MOTION":"15.06395921","MEAN_MOTION_DDOT":"0.0000000000000","MEAN_ANOMALY":"312.5734","MEAN_MOTION_DOT":"0.00001913","LAUNCH_DATE":"2020-10-18","FILE":"3428698","GP_ID":"202682115","ARG_OF_PERICENTER":"47.5436","REF_FRAME":"TEME","PERIOD":"95.592","DECAY_DATE":null,"COUNTRY_CODE":"US"},{"COUNTRY_CODE":"US","REF_FRAME":"TEME","PERIOD":"95.592","GP_ID":"202655291","ARG_OF_PERICENTER":"115.0977","DECAY_DATE":null,"FILE":"3428485","MEAN_MOTION":"15.06400747","LAUNCH_DATE":"2020-10-18","MEAN_MOTION_DDOT":"0.0000000000000","MEAN_MOTION_DOT":"0.00004680","MEAN_ANOMALY":"245.0132","RCS_SIZE":"LARGE","SITE":"AFETR","PERIAPSIS":"546.411","OBJECT_TYPE":"PAYLOAD","TIME_SYSTEM":"UTC","REV_AT_EPOCH":"8609","MEAN_ELEMENT_THEORY":"SGP4","EPHEMERIS_TYPE":"0","NORAD_CAT_ID":"46694","OBJECT_ID":"2020-073AA","CENTER_NAME":"EARTH","EPOCH":"2022-05-04T11:36:09.601344","TLE_LINE1":"1 46694U 20073AA  22124.48344446  .00004680  00000-0  33288-3 0  9994","INCLINATION":"53.0565","CLASSIFICATION_TYPE":"U","ECCENTRICITY":"0.00011560","BSTAR":"0.00033288000000","OBJECT_NAME":"STARLINK-1793","SEMIMAJOR_AXIS":"6925.346","TLE_LINE2":"2 46694  53.0565  49.8459 0001156 115.0977 245.0132 15.06400747 86091","APOAPSIS":"548.012","ELEMENT_SET_NO":"999","RA_OF_ASC_NODE":"49.8459"},{"SEMIMAJOR_AXIS":"6925.366","BSTAR":"0.00018701000000","OBJECT_NAME":"STARLINK-1795","APOAPSIS":"548.518","TLE_LINE2":"2 46696  53.0571  49.7529 0001859  48.0546 312.0601 15.06394361 86094","CLASSIFICATION_TYPE":"U","ECCENTRICITY":"0.00018590","RA_OF_ASC_NODE":"49.7529","ELEMENT_SET_NO":"999","EPHEMERIS_TYPE":"0","OBJECT_TYPE":"PAYLOAD","REV_AT_EPOCH":"8609","MEAN_ELEMENT_THEORY":"SGP4","TIME_SYSTEM":"UTC","TLE_LINE1":"1 46696U 20073AC  22124.50187609  .00002505  00000-0  18701-3 0  9992","EPOCH":"2022-05-04T12:02:42.094176","CENTER_NAME":"EARTH","INCLINATION":"53.0571","NORAD_CAT_ID":"46696","OBJECT_ID":"2020-073AC","MEAN_MOTION":"15.06394361","MEAN_ANOMALY":"312.0601","MEAN_MOTION_DDOT":"0.0000000000000","MEAN_MOTION_DOT":"0.00002505","LAUNCH_DATE":"2020-10-18","PERIAPSIS":"545.943","SITE":"AFETR","RCS_SIZE":"LARGE","COUNTRY_CODE":"US","FILE":"3428487","ARG_OF_PERICENTER":"48.0546","GP_ID":"202655328","PERIOD":"95.592","REF_FRAME":"TEME","DECAY_DATE":null}];
